NORAD_CAT_ID,OBJECT_NAME,OBJECT_TYPE,EPOCH,MEAN_MOTION,ECCENTRICITY,INCLINATION,RA_OF_ASC_NODE,ARG_OF_PERICENTER,MEAN_ANOMALY,BSTAR,MEAN_MOTION_DOT,MEAN_MOTION_DDOT,TLE_LINE0,TLE_LINE1,TLE_LINE2,SEMIMAJOR_AXIS,PERIOD,APOGEE,PERIGEE,DECAYED
53589.0,STARLINK-4673,PAYLOAD,2023-05-28 02:24:23,15.08824416,5.96e-05,53.2154,127.8151,85.4453,274.6608,-7.8944e-05,-1.543e-05,0.0,0 STARLINK-4673,1 53589U 22104B   23148.10027383 -.00001543  00000-0 -78944-4 0  9992,2 53589  53.2154 127.8151 0000596  85.4453 274.6608 15.08824416 41452,6917.928,95.439,540.205,539.381,0.0
53589.0,STARLINK-4673,PAYLOAD,2023-05-28 05:35:09,15.0883033,7.17e-05,53.215,127.2203,102.371,257.7362,4.0658e-06,-2.23e-06,0.0,0 STARLINK-4673,1 53589U 22104B   23148.23274855 -.00000223  00000-0  40658-5 0  9999,2 53589  53.2150 127.2203 0000717 102.3710 257.7362 15.08830330 41473,6917.91,95.438,540.271,539.279,0.0
53589.0,STARLINK-4673,PAYLOAD,2023-05-28 15:07:27,15.08836509,7.47e-05,53.215,125.4365,107.9721,252.1352,6.6554e-05,7.72e-06,0.0,0 STARLINK-4673,1 53589U 22104B   23148.63018504  .00000772  00000-0  66554-4 0  9990,2 53589  53.2150 125.4365 0000747 107.9721 252.1352 15.08836509 41537,6917.891,95.438,540.273,539.239,0.0
53589.0,STARLINK-4673,PAYLOAD,2023-05-29 05:25:55,15.08842818,6.96e-05,53.216,122.7611,103.781,256.326,0.00016256,2.301e-05,0.0,0 STARLINK-4673,1 53589U 22104B   23149.22634079  .00002301  00000-0  16256-3 0  9990,2 53589  53.2160 122.7611 0000696 103.7810 256.3260 15.08842818 42645,6917.872,95.437,540.218,539.255,0.0
53589.0,STARLINK-4673,PAYLOAD,2023-05-29 21:19:47,15.08838132,6.8e-05,53.2158,119.7878,123.195,236.9107,0.00022146,3.238e-05,0.0,0 STARLINK-4673,1 53589U 22104B   23149.88874586  .00003238  00000-0  22146-3 0  9996,2 53589  53.2158 119.7878 0000680 123.1950 236.9107 15.08838132 42746,6917.886,95.438,540.222,539.281,0.0
53589.0,STARLINK-4673,PAYLOAD,2023-05-29 22:55:10,15.08845152,6.65e-05,53.2161,119.4905,125.7972,234.3082,0.00011971,1.618e-05,0.0,0 STARLINK-4673,1 53589U 22104B   23149.95498499  .00001618  00000-0  11971-3 0  9993,2 53589  53.2161 119.4905 0000665 125.7972 234.3082 15.08845152 41735,6917.865,95.437,540.19,539.27,0.0
53589.0,STARLINK-4673,PAYLOAD,2023-05-30 06:52:06,15.08849212,6.57e-05,53.2161,118.0036,124.8519,235.2535,0.00014386,2.003e-05,0.0,0 STARLINK-4673,1 53589U 22104B   23150.28618066  .00002003  00000-0  14386-3 0  9997,2 53589  53.2161 118.0036 0000657 124.8519 235.2535 15.08849212 42806,6917.852,95.437,540.172,539.263,0.0
53589.0,STARLINK-4673,PAYLOAD,2023-05-31 01:56:43,15.08848865,6.76e-05,53.216,114.4353,126.6067,233.4987,4.2857e-05,3.95e-06,0.0,0 STARLINK-4673,1 53589U 22104B   23151.08105948  .00000395  00000-0  42857-4 0  9993,2 53589  53.2160 114.4353 0000676 126.6067 233.4987 15.08848865 41900,6917.853,95.437,540.186,539.251,0.0
53589.0,STARLINK-4673,PAYLOAD,2023-05-31 06:42:52,15.08852565,6.63e-05,53.2161,113.5428,124.9274,235.178,3.4991e-05,2.69e-06,0.0,0 STARLINK-4673,1 53589U 22104B   23151.27977602  .00000269  00000-0  34991-4 0  9998,2 53589  53.2161 113.5428 0000663 124.9274 235.1780 15.08852565 42959,6917.842,95.437,540.166,539.248,0.0
53589.0,STARLINK-4673,PAYLOAD,2023-05-31 14:39:48,15.08845796,5.98e-05,53.2164,112.0553,107.1267,252.979,5.2129e-06,-2.05e-06,0.0,0 STARLINK-4673,1 53589U 22104B   23151.61097937 -.00000205  00000-0  52129-5 0  9995,2 53589  53.2164 112.0553 0000598 107.1267 252.9790 15.08845796 43000,6917.863,95.437,540.141,539.314,0.0
53589.0,STARLINK-4673,PAYLOAD,2023-06-01 03:22:53,15.08846972,6.28e-05,53.2162,109.6756,110.4147,249.6913,-1.5256e-05,-5.3e-06,0.0,0 STARLINK-4673,1 53589U 22104B   23152.14089673 -.00000530  00000-0 -15256-4 0  9993,2 53589  53.2162 109.6756 0000628 110.4147 249.6913 15.08846972 42065,6917.859,95.437,540.159,539.29,0.0
53589.0,STARLINK-4673,PAYLOAD,2023-06-01 06:33:39,15.08850717,6.96e-05,53.2161,109.0805,107.3481,252.7587,1.3795e-05,-6.8e-07,0.0,0 STARLINK-4673,1 53589U 22104B   23152.27337283 -.00000068  00000-0  13795-4 0  9991,2 53589  53.2161 109.0805 0000696 107.3481 252.7587 15.08850717 43104,6917.848,95.437,540.194,539.231,0.0
53589.0,STARLINK-4673,PAYLOAD,2023-06-02 03:13:40,15.08838281,7.93e-05,53.2153,105.2143,129.3143,230.7919,-2.6242e-05,-7.05e-06,0.0,0 STARLINK-4673,1 53589U 22104B   23153.13449956 -.00000705  00000-0 -26242-4 0  9998,2 53589  53.2153 105.2143 0000793 129.3143 230.7919 15.08838281 42213,6917.886,95.438,540.299,539.202,0.0
53589.0,STARLINK-4673,PAYLOAD,2023-06-02 06:24:26,15.08840312,8.59e-05,53.2152,104.6195,137.019,223.0869,3.6193e-06,-2.3e-06,0.0,0 STARLINK-4673,1 53589U 22104B   23153.26697704 -.00000230  00000-0  36193-5 0  9997,2 53589  53.2152 104.6195 0000859 137.0190 223.0869 15.08840312 43255,6917.879,95.438,540.339,539.15,0.0
53589.0,STARLINK-4673,PAYLOAD,2023-06-03 03:04:27,15.08846124,8.12e-05,53.2161,100.7529,104.5572,255.5511,4.8552e-07,-2.8e-06,0.0,0 STARLINK-4673,1 53589U 22104B   23154.12809463 -.00000280  00000-0  48552-6 0  9998,2 53589  53.2161 100.7529 0000812 104.5572 255.5511 15.08846124 42367,6917.862,95.437,540.288,539.165,0.0
53589.0,STARLINK-4673,PAYLOAD,2023-06-03 20:33:42,15.08835994,8.51e-05,53.2173,97.483,101.3736,258.7352,1.7181e-05,-1.4e-07,0.0,0 STARLINK-4673,1 53589U 22104B   23154.85674138 -.00000014  00000-0  17181-4 0  9994,2 53589  53.2173  97.4830 0000851 101.3736 258.7352 15.08835994 43493,6917.893,95.438,540.346,539.169,0.0
53589.0,STARLINK-4673,PAYLOAD,2023-06-04 02:55:14,15.08837637,8.1e-05,53.2168,96.2958,93.2197,266.8888,5.1465e-05,5.31e-06,0.0,0 STARLINK-4673,1 53589U 22104B   23155.12169974  .00000531  00000-0  51465-4 0  9998,2 53589  53.2168  96.2958 0000810  93.2197 266.8888 15.08837637 42512,6917.888,95.438,540.313,539.192,0.0
53589.0,STARLINK-4673,PAYLOAD,2023-06-04 06:06:01,15.08840686,8.55e-05,53.2169,95.7009,93.3012,266.8078,3.9963e-05,3.48e-06,0.0,0 STARLINK-4673,1 53589U 22104B   23155.25417842  .00000348  00000-0  39963-4 0  9997,2 53589  53.2169  95.7009 0000855  93.3012 266.8078 15.08840686 43554,6917.878,95.438,540.335,539.152,0.0
53589.0,STARLINK-4673,PAYLOAD,2023-06-04 20:24:29,15.08836945,8.87e-05,53.2172,93.0259,94.7036,265.4057,1.3254e-05,-7.7e-07,0.0,0 STARLINK-4673,1 53589U 22104B   23155.85034221 -.00000077  00000-0  13254-4 0  9994,2 53589  53.2172  93.0259 0000887  94.7036 265.4057 15.08836945 43647,6917.89,95.438,540.368,539.141,0.0
53589.0,STARLINK-4673,PAYLOAD,2023-06-05 04:21:24,15.08845326,9.22e-05,53.2172,91.539,94.7707,265.339,8.0794e-05,9.99e-06,0.0,0 STARLINK-4673,1 53589U 22104B   23156.18153456  .00000999  00000-0  80794-4 0  9998,2 53589  53.2172  91.5390 0000922  94.7707 265.3390 15.08845326 42675,6917.864,95.437,540.367,539.091,0.0
53589.0,STARLINK-4673,PAYLOAD,2023-06-05 12:18:20,15.08838079,8.82e-05,53.217,90.0518,91.2189,268.8904,4.1905e-05,3.79e-06,0.0,0 STARLINK-4673,1 53589U 22104B   23156.51274022  .00000379  00000-0  41905-4 0  9991,2 53589  53.2170  90.0518 0000882  91.2189 268.8904 15.08838079 43745,6917.886,95.438,540.361,539.141,0.0
53589.0,STARLINK-4673,PAYLOAD,2023-06-06 01:01:26,15.08830376,9.56e-05,53.2177,87.6744,91.4024,268.7078,-1.9008e-05,-5.9e-06,0.0,0 STARLINK-4673,1 53589U 22104B   23157.04266929 -.00000590  00000-0 -19008-4 0  9993,2 53589  53.2177  87.6744 0000956  91.4024 268.7078 15.08830376 42806,6917.91,95.438,540.436,539.113,0.0
53589.0,STARLINK-4673,PAYLOAD,2023-06-06 04:12:12,15.08830599,0.0001095,53.2179,87.0803,103.8235,256.2879,2.2126e-07,-2.84e-06,0.0,0 STARLINK-4673,1 53589U 22104B   23157.17514936 -.00000284  00000-0  22126-6 0  9997,2 53589  53.2179  87.0803 0001095 103.8235 256.2879 15.08830599 43848,6917.909,95.438,540.532,539.017,0.0
53589.0,STARLINK-4673,PAYLOAD,2023-06-06 18:30:40,15.08836501,0.0001048,53.2179,84.403,89.9263,270.1849,2.5117e-05,1.12e-06,0.0,0 STARLINK-4673,1 53589U 22104B   23157.77130634  .00000112  00000-0  25117-4 0  9992,2 53589  53.2179  84.4030 0001048  89.9263 270.1849 15.08836501 42912,6917.891,95.438,540.481,539.031,0.0
53589.0,STARLINK-4673,PAYLOAD,2023-06-06 20:06:04,15.08838937,8.81e-05,53.2174,84.1048,88.9101,271.1992,-1.6655e-05,-5.53e-06,0.0,0 STARLINK-4673,1 53589U 22104B   23157.83754666 -.00000553  00000-0 -16655-4 0  9994,2 53589  53.2174  84.1048 0000881  88.9101 271.1992 15.08838937 43946,6917.884,95.438,540.358,539.139,0.0
53589.0,STARLINK-4673,PAYLOAD,2023-06-07 05:38:22,15.08848867,8.99e-05,53.217,82.32,87.314,272.7955,6.832e-05,8e-06,0.0,0 STARLINK-4673,1 53589U 22104B   23158.23497728  .00000800  00000-0  68320-4 0  9991,2 53589  53.2170  82.3200 0000899  87.3140 272.7955 15.08848867 42989,6917.853,95.437,540.34,539.096,0.0
53589.0,STARLINK-4673,PAYLOAD,2023-06-07 18:21:28,15.08830282,0.0001051,53.2153,79.9392,85.7847,274.3265,7.8715e-05,9.65e-06,0.0,0 STARLINK-4673,1 53589U 22104B   23158.76490976  .00000965  00000-0  78715-4 0  9998,2 53589  53.2153  79.9392 0001051  85.7847 274.3265 15.08830282 43065,6917.91,95.438,540.502,539.048,0.0
53589.0,STARLINK-4673,PAYLOAD,2023-06-08 03:53:46,15.08840274,0.0001032,53.216,78.1562,86.1312,273.9798,7.4634e-05,9e-06,0.0,0 STARLINK-4673,1 53589U 22104B   23159.16234517  .00000900  00000-0  74634-4 0  9995,2 53589  53.2160  78.1562 0001032  86.1312 273.9798 15.08840274 43129,6917.88,95.438,540.458,539.031,0.0
53589.0,STARLINK-4673,PAYLOAD,2023-06-08 22:58:24,15.08836463,0.0001013,53.2159,74.5876,107.4147,252.6956,3.7453e-05,3.08e-06,0.0,0 STARLINK-4673,1 53589U 22104B   23159.95722926  .00000308  00000-0  37453-4 0  9998,2 53589  53.2159  74.5876 0001013 107.4147 252.6956 15.08836463 43245,6917.891,95.438,540.457,539.055,0.0
53589.0,STARLINK-4673,PAYLOAD,2023-06-09 11:41:29,15.08843708,9.89e-05,53.2166,72.2082,98.9679,261.1425,2.4701e-06,-2.48e-06,0.0,0 STARLINK-4673,1 53589U 22104B   23160.48714605 -.00000248  00000-0  24701-5 0  9990,2 53589  53.2166  72.2082 0000989  98.9679 261.1425 15.08843708 44340,6917.869,95.437,540.418,539.05,0.0
